{"type":"FeatureCollection","features":[{"type":"Feature","geometry":{"type":"Polygon","coordinates":[[[1.4287749,43.5460724],[1.4501277,43.5377429],[1.4624109,43.5490659],[1.4751356,43.5566208],[1.498597,43.5534478],[1.5133012,43.5639016],[1.5106977,43.5766098],[1.4980154,43.5814714],[1.4856293,43.6099773],[1.4798395,43.6283717],[1.4906879,43.6338317],[1.4993732,43.646109],[1.4681541,43.6472251],[1.4688833,43.6547846],[1.459608,43.6583378],[1.4528811,43.6506758],[1.4410791,43.6549857],[1.4403287,43.6673001],[1.4298194,43.6664645],[1.4319337,43.6574173],[1.4121431,43.6667407],[1.4017432,43.6496337],[1.4038702,43.6357547],[1.3997845,43.6209097],[1.3875054,43.6155328],[1.3740947,43.6193489],[1.3563602,43.6205829],[1.3503311,43.6042797],[1.3642934,43.597504],[1.3621881,43.5916278],[1.3763631,43.5899549],[1.3688804,43.5734253],[1.3593579,43.5604355],[1.3680214,43.5498992],[1.388668,43.5367635],[1.4053083,43.5436875],[1.4105927,43.5490803],[1.4287749,43.5460724]]]},"properties":{"loc_name":"Toulouse","@id":"relation/35738","admin_level":"8","boundary":"administrative","name":"Toulouse","name:am":"ቱሉዝ","name:ar":"تولوز","name:az":"Tuluza","name:be":"Тулюза","name:bg":"Тулуза","name:bo":"ཊོའུ་ལོའུ་སེ།","name:br":"Toloza","name:ca":"Tolosa","name:ce":"Тулуза","name:co":"Tolosa","name:csb":"Tólóza","name:de":"Toulouse","name:el":"Τουλούζη","name:en":"Toulouse","name:eo":"Tuluzo","name:es":"Toulouse","name:eu":"Tolosa Okzitania","name:fa":"تولوز","name:frp":"Tolosa","name:gl":"Tolosa","name:he":"טולוז","name:hi":"तुलूज़","name:hy":"Թուլուզ","name:it":"Tolosa","name:ja":"トゥールーズ","name:ka":"ტულუზა","name:kk":"Тулуза","name:kn":"ತೂಲೂಸ್","name:ko":"툴루즈","name:la":"Tolosa","name:lt":"Tulūza","name:lv":"Tulūza","name:mhr":"Тулузо","name:ml":"ടൂളൂസ്","name:mr":"तुलूझ","name:mzn":"تولوز","name:nap":"Tolosa","name:oc":"Tolosa","name:os":"Тулузæ","name:pa":"ਟੁਲੂਜ਼","name:pl":"Tuluza","name:pms":"Tolosa","name:pnb":"تولوز","name:ru":"Тулуза","name:sc":"Tolosa","name:scn":"Tolosa","name:sr":"Тулуза","name:ta":"துலூஸ்","name:th":"ตูลูซ","name:tt":"Тулуза","name:uk":"Тулуза","name:ur":"تولوز","name:vec":"Tołoxa","name:xmf":"ტულუზა","name:yi":"טולוז","name:yue":"圖魯茲","name:zh":"图卢兹","old_name:es":"Tolosa","population":"504078","population:date":"2021","postal_code":"31000;31100;31200;31300;31400;31500","ref:FR:SIREN":"213105554","ref:INSEE":"31555","short_name:eu":"Tolosa","source:name:oc":"ieo-bdtopoc","source:population":"INSEE 2024","source:postal_code":"La Poste - 12/2014","type":"boundary","website":"https://www.toulouse.fr/","wikidata":"Q7880","wikipedia":"fr:Toulouse"},"id":"relation/35738"},{"type":"Feature","geometry":{"type":"Polygon","coordinates":[[[2.8164867,50.4554595],[2.8118861,50.4725762],[2.8064704,50.4678525],[2.801892,50.4706132],[2.7986721,50.4682135],[2.7944929,50.4731289],[2.7900435,50.4729826],[2.779939,50.4791822],[2.7737903,50.4743982],[2.7631612,50.4627924],[2.7609547,50.4594547],[2.7656672,50.4578904],[2.7560898,50.4538791],[2.7579466,50.4504852],[2.7563958,50.4481205],[2.76,50.4427833],[2.7553211,50.4414182],[2.7601288,50.4389781],[2.7653826,50.4408933],[2.7668933,50.4380103],[2.7708293,50.4374099],[2.7859554,50.4412497],[2.7950208,50.4452017],[2.800855,50.444107],[2.8079563,50.4463978],[2.8083801,50.4481248],[2.8165759,50.450588],[2.8164867,50.4554595]]]},"properties":{"loc_name":"Loos en Gohelle","@id":"relation/1113031","admin_level":"8","boundary":"administrative","name":"Loos-en-Gohelle","population":"6896","population:date":"2021","postal_code":"62750","ref:FR:SIREN":"216205286","ref:INSEE":"62528","source:population":"INSEE 2024","source:postal_code":"La Poste - 12/2014","type":"boundary","wikidata":"Q323727","wikipedia":"fr:Loos-en-Gohelle"},"id":"relation/1113031"},{"type":"Feature","geometry":{"type":"Polygon","coordinates":[[[0.1972339,48.0180402],[0.1814685,48.035837],[0.1696647,48.0261419],[0.1476197,48.0264645],[0.136291,48.017639],[0.1627894,48.0077032],[0.1638658,47.9925662],[0.1508582,47.9818286],[0.1753303,47.9639524],[0.1752417,47.9579361],[0.192895,47.9446805],[0.2183064,47.941466],[0.2334742,47.944556],[0.2277861,47.9564456],[0.2428449,47.9633807],[0.2355875,47.9688473],[0.255058,47.9806212],[0.2426077,47.984376],[0.235653,48.0010048],[0.2474012,48.0060306],[0.2526916,48.0144228],[0.226904,48.0244313],[0.2118557,48.0239948],[0.1972339,48.0180402]]]},"properties":{"loc_name":"Le Mans","@id":"relation/107435","admin_level":"8","boundary":"administrative","capital":"6","name":"Le Mans","name:ar":"لو مان","name:be":"Ле Ман","name:bg":"Льо Ман","name:bn":"ল্য মঁস","name:br":"Ar Mañs","name:el":"Λε Μαν","name:eo":"Manso","name:fa":"لو مان","name:fr":"Le Mans","name:he":"לה מאן","name:ja":"ル・マン","name:ka":"ლე-მანი","name:ko":"르망","name:la":"Vindunum","name:lt":"Le Manas","name:lv":"Lemāna","name:mk":"Ле Ман","name:mzn":"لومان","name:oc":"Lo Mans","name:pnb":"لی مانس","name:ru":"Ле Ман","name:sr":"Ле Ман","name:uk":"Ле Ман","name:ur":"لو مان","name:zh":"勒芒","population":"145004","population:date":"2021","postal_code":"72000;72100","ref:FR:SIREN":"217201813","ref:INSEE":"72181","source:population":"INSEE 2024","type":"boundary","website":"https://www.lemans.fr/","wikidata":"Q1476","wikipedia":"fr:Le Mans"},"id":"relation/107435"},{"type":"Feature","geometry":{"type":"Polygon","coordinates":[[[4.5411685,45.1009497],[4.5424035,45.1031696],[4.5419678,45.1056964],[4.5434459,45.1084649],[4.543056,45.1105516],[4.5491753,45.1171482],[4.5493203,45.120658],[4.5504264,45.1220527],[4.5466688,45.1292407],[4.5444477,45.1302989],[4.5286009,45.1314104],[4.5264436,45.1350675],[4.5283068,45.1391446],[4.5262902,45.1399457],[4.5253128,45.1374375],[4.5229912,45.1352405],[4.5191969,45.1334026],[4.5174442,45.1306803],[4.518211,45.1281538],[4.509933,45.1200065],[4.5045157,45.1174909],[4.5028016,45.1130216],[4.5012384,45.1135061],[4.4943862,45.113035],[4.4927242,45.1116773],[4.4929844,45.1092455],[4.4964053,45.1079103],[4.5005026,45.1084982],[4.5063083,45.1077574],[4.5064999,45.1037341],[4.5110098,45.1043768],[4.514834,45.10421],[4.5159681,45.1019193],[4.5141878,45.1004167],[4.514374,45.0980922],[4.5126849,45.0966535],[4.5147347,45.0939177],[4.5190679,45.0952582],[4.5220688,45.0992184],[4.5251738,45.1010372],[4.5297056,45.1007986],[4.5367221,45.1019249],[4.5411685,45.1009497]]]},"properties":{"loc_name":"Lalouvesc","@id":"relation/129398","admin_level":"8","alt_name":"La Louvesc","boundary":"administrative","name":"Lalouvesc","name:oc":"L'Alauvesc","population":"377","population:date":"2021","postal_code":"07520","ref:FR:SIREN":"210701280","ref:INSEE":"07128","source:name:oc":"ieo-bdtopoc","source:population":"INSEE 2024","type":"boundary","website":"https://www.lalouvesc.com/","wikidata":"Q45196","wikipedia":"fr:Lalouvesc"},"id":"relation/129398"},{"type":"Feature","geometry":{"type":"Polygon","coordinates":[[[-1.8368443,48.1244213],[-1.8374514,48.1279919],[-1.8345917,48.1314972],[-1.8310451,48.132401],[-1.8298868,48.1352548],[-1.8259265,48.1364132],[-1.8283161,48.1400558],[-1.8336646,48.1414256],[-1.8360846,48.1386676],[-1.8469971,48.137354],[-1.8477839,48.1354951],[-1.8649395,48.1339148],[-1.8658681,48.1321048],[-1.8730363,48.1281333],[-1.8837939,48.1277778],[-1.8866222,48.1261395],[-1.8867247,48.1202658],[-1.8816979,48.112198],[-1.8783868,48.1118813],[-1.8684851,48.1139101],[-1.8621652,48.1116934],[-1.8610173,48.1148397],[-1.85796,48.115127],[-1.8500229,48.1183316],[-1.8472958,48.117606],[-1.8376919,48.1189059],[-1.8361432,48.1199187],[-1.8368443,48.1244213]]]},"properties":{"loc_name":"La Chapelle-Thouarault","@id":"relation/128195","admin_level":"8","boundary":"administrative","name":"La Chapelle-Thouarault","name:br":"Bredual","population":"2252","population:date":"2021","postal_code":"35590","ref:FR:SIREN":"213500655","ref:INSEE":"35065","source:population":"INSEE 2024","source:postal_code":"source of postcode is from osm nodes","type":"boundary","wikidata":"Q664527","wikipedia":"fr:La Chapelle-Thouarault"},"id":"relation/128195"},{"type":"Feature","geometry":{"type":"Polygon","coordinates":[[[4.842235,44.0118752],[4.833373,44.0157345],[4.8189756,44.0181124],[4.816586,44.031133],[4.8081183,44.0399005],[4.7882842,44.0523998],[4.787309,44.0652751],[4.781328,44.0686678],[4.7687068,44.0715872],[4.7624388,44.0749112],[4.7559189,44.0743666],[4.7558631,44.0532658],[4.7314726,44.0520305],[4.7272196,44.0442014],[4.7196573,44.0448972],[4.7118758,44.0364572],[4.7163856,44.024697],[4.7257033,44.0144181],[4.7387174,44.0134062],[4.7416761,44.0073397],[4.7349481,43.9985608],[4.7249215,43.9931361],[4.7138947,43.9908722],[4.6899354,43.9982524],[4.6652552,44.0000835],[4.6481389,44.0068326],[4.6367684,44.0068404],[4.6369936,44.0165222],[4.6204967,44.0162559],[4.6194236,44.0068084],[4.6228784,43.9955309],[4.6380104,43.9951535],[4.6383541,43.9891313],[4.6528533,43.9685521],[4.6642934,43.9642235],[4.6723688,43.9505641],[4.6719468,43.9373655],[4.6793369,43.9274813],[4.6952123,43.9314032],[4.7151525,43.931832],[4.732545,43.9297866],[4.7354315,43.9166551],[4.7433944,43.9234503],[4.7612906,43.9214269],[4.8225859,43.9128353],[4.853161,43.9113788],[4.8852394,43.9003474],[4.9026572,43.888347],[4.9217974,43.8878197],[4.946618,43.8779012],[4.9666139,43.8712257],[4.9759147,43.8664755],[4.9921196,43.8504637],[4.9739878,43.8825412],[4.9827974,43.8846243],[4.984256,43.8890941],[4.9955503,43.8906422],[4.9915777,43.8951073],[4.9837695,43.8968101],[4.9698115,43.9107317],[4.9646656,43.9096075],[4.9520877,43.9122961],[4.9410769,43.908647],[4.9313715,43.9105829],[4.9187432,43.9178546],[4.9228336,43.9305373],[4.9193089,43.9356903],[4.9209399,43.9459152],[4.9348522,43.942443],[4.9431016,43.9459229],[4.9590943,43.9485493],[4.959282,43.9546443],[4.9507993,43.9624288],[4.9769325,43.9680143],[5.001653,43.9613577],[5.0005762,43.956788],[5.0060727,43.9463039],[5.0172091,43.9443425],[5.0216249,43.9462231],[5.0415559,43.9447839],[5.0618007,43.9548038],[5.0693106,43.9606006],[5.0656932,43.9703128],[5.0518166,43.9726999],[5.039948,43.9772807],[5.0162924,43.9743387],[4.9992707,43.9660126],[4.9946555,43.9708973],[4.9563558,43.9731462],[4.9512064,43.9751592],[4.9621712,43.9864251],[4.9524221,43.9999223],[4.9461751,44.0058189],[4.9378361,44.0177817],[4.9360711,44.0244078],[4.9275747,44.0203492],[4.9187859,44.0205129],[4.9100967,44.0165814],[4.9065632,44.0043024],[4.9109767,43.9929969],[4.8937923,43.9870128],[4.8845058,43.9816185],[4.8670053,43.9894154],[4.8514741,43.9892204],[4.8455335,43.9967419],[4.842235,44.0118752]]]},"properties":{"loc_name":"CA du Grand Avignon","@id":"relation/1271993","boundary":"local_authority","local_authority:FR":"CA","name":"Grand Avignon","name:ar":"أفينيون الكبير","official_name":"Communauté d'Agglomération du Grand Avignon","old_short_name":"COGA","ref:FR:SIREN":"248400251","short_name":"coGA","type":"boundary","website":"https://www.grandavignon.fr/","wikidata":"Q1120105","wikipedia":"fr:Grand Avignon"},"id":"relation/1271993"},{"type":"Feature","geometry":{"type":"Polygon","coordinates":[[[-0.4610613,46.3172833],[-0.4616908,46.3159795],[-0.4633716,46.315897],[-0.463255,46.3151596],[-0.4613845,46.3149152],[-0.4610538,46.3143537],[-0.4597951,46.3142397],[-0.4582043,46.315431],[-0.4579899,46.3159374],[-0.4581993,46.3162897],[-0.4578275,46.3166928],[-0.4591511,46.3170982],[-0.4589125,46.3182089],[-0.4597185,46.3184949],[-0.4601304,46.3172699],[-0.4610388,46.3174704],[-0.4607109,46.3181976],[-0.4616094,46.3182811],[-0.4618542,46.3188686],[-0.4630763,46.3191875],[-0.4631774,46.3203643],[-0.4649978,46.3204949],[-0.4655801,46.3202052],[-0.4654133,46.3193729],[-0.4646565,46.3179265],[-0.4642599,46.3179446],[-0.4636954,46.3167632],[-0.4610613,46.3172833]]]},"properties":{"loc_name":"Centre Hospitalier de Niort","@id":"relation/9886101","amenity":"hospital","contact:twitter":"HopitaldeNiort","emergency":"yes","fax":"+33 5 49 78 27 00","healthcare":"hospital","healthcare:speciality":"intensive","name":"Centre hospitalier de Niort","operator:type":"public","phone":"+33 5 49 32 79 79","ref:FR:FINESS":"790000087","source":"cadastre-dgi-fr source : Direction Générale des Impôts - Cadastre. Mise à jour : 2009","type":"multipolygon","type:FR:FINESS":"355","website":"https://www.ch-niort.fr/"},"id":"relation/9886101"},{"type":"Feature","geometry":{"type":"Polygon","coordinates":[[[3.5387338,43.7911022],[3.5742652,43.7876393],[3.5900983,43.7759673],[3.5823209,43.7575484],[3.6107955,43.742527],[3.6585862,43.7878511],[3.674408,43.7853225],[3.6789153,43.7591003],[3.6642466,43.719471],[3.6919846,43.7153856],[3.7203035,43.7378155],[3.7446366,43.7146348],[3.6976788,43.6592388],[3.7297134,43.6395616],[3.7828751,43.6630429],[3.8005277,43.6590387],[3.8643628,43.6804305],[3.8461642,43.7237968],[3.8741928,43.7319815],[3.8885984,43.6754064],[3.9493811,43.669401],[3.9390299,43.7085483],[3.9490864,43.740438],[3.9397376,43.7560445],[3.9825587,43.7660675],[4.0031913,43.7342114],[4.0370696,43.7481788],[4.0114691,43.7614231],[4.0057734,43.7766405],[3.9795265,43.7929436],[3.9615444,43.8160898],[3.978079,43.8295372],[3.9583771,43.8540736],[3.9223221,43.8580699],[3.9196056,43.8811688],[3.8571834,43.8771725],[3.8519143,43.8675853],[3.7719807,43.8864794],[3.7363692,43.851124],[3.7244529,43.8266895],[3.698424,43.8230703],[3.6702789,43.8400057],[3.6770967,43.8516542],[3.6572314,43.8773525],[3.6189428,43.8588657],[3.581224,43.8482804],[3.5634975,43.8331465],[3.5671314,43.8130656],[3.5387338,43.7911022]]]},"properties":{"loc_name":"CC Grand Pic St Loup","@id":"relation/2167698","boundary":"local_authority","local_authority:FR":"CC","name":"Communauté de communes du Grand Pic Saint-Loup","population":"47600","ref:FR:SIREN":"200022986","type":"boundary","website":"https://www.cc-grandpicsaintloup.fr/","wikidata":"Q2988424","wikipedia":"fr:Communauté de communes du Grand Pic Saint-Loup"},"id":"relation/2167698"},{"type":"Feature","geometry":{"type":"Polygon","coordinates":[[[4.5582575,46.6394315],[4.5458859,46.6319729],[4.5281924,46.6285846],[4.5244517,46.5946496],[4.5070864,46.5884882],[4.5141319,46.575475],[4.5060971,46.5725008],[4.4973233,46.5555557],[4.4803534,46.5478123],[4.4696678,46.5484033],[4.4683493,46.5564866],[4.4475436,46.5622969],[4.4347293,46.559621],[4.4115025,46.5459929],[4.4112772,46.5259603],[4.4141872,46.5143767],[4.4291323,46.5019778],[4.4308634,46.491022],[4.4445722,46.4883806],[4.4613974,46.5099823],[4.4841416,46.4935143],[4.4764665,46.4793048],[4.4667744,46.4722693],[4.4769729,46.4618437],[4.4973023,46.4520868],[4.4828572,46.4393868],[4.4758667,46.4194745],[4.4838476,46.4088405],[4.5109004,46.4021717],[4.5144732,46.3900763],[4.5366059,46.3949674],[4.5531779,46.391842],[4.5584776,46.386493],[4.5759847,46.3818217],[4.6079897,46.3689976],[4.623491,46.3792337],[4.6390503,46.3823973],[4.6519334,46.3776157],[4.6613311,46.3857397],[4.656362,46.4016741],[4.6814019,46.3895885],[4.6849319,46.3777953],[4.6946966,46.3801171],[4.6954092,46.4027704],[4.7002071,46.4165093],[4.7170786,46.4321636],[4.7208818,46.4414842],[4.7319729,46.4507176],[4.7567066,46.4649811],[4.7577894,46.4803513],[4.7672623,46.4962662],[4.7649448,46.5086924],[4.7761056,46.525233],[4.7715009,46.5322759],[4.75832,46.5387602],[4.7495001,46.5337468],[4.7386839,46.545117],[4.7178934,46.54029],[4.720167,46.526278],[4.705222,46.516829],[4.685612,46.5218713],[4.6837852,46.5355507],[4.671556,46.539704],[4.657916,46.549427],[4.6557974,46.5650637],[4.6461104,46.5686824],[4.6208396,46.5699721],[4.6065788,46.5860627],[4.6093553,46.6045552],[4.5999511,46.6160742],[4.5895947,46.6216719],[4.5784463,46.6370173],[4.5582575,46.6394315]]]},"properties":{"loc_name":"CC Clunisois","@id":"relation/3470503","boundary":"local_authority","local_authority:FR":"CC","name":"Communauté de communes du Clunisois","ref:FR:SIREN":"200040293","source":"http://www.saone-et-loire.gouv.fr/IMG/pdf/recueil-71-2016-078-recueil-des-actes-administratifs.pdf","type":"boundary","website":"https://www.enclunisois.com/","wikidata":"Q1118646","wikipedia":"fr:Communauté de communes du Clunisois"},"id":"relation/3470503"},{"type":"Feature","geometry":{"type":"Polygon","coordinates":[[[6.3352834,45.1224578],[6.3019272,45.1091849],[6.2664273,45.1247685],[6.2292343,45.1087771],[6.2439955,45.0693505],[6.2207192,45.0657752],[6.200833,45.0222449],[6.2032045,45.0114822],[6.2539389,44.9958156],[6.3070295,45.0048605],[6.3310138,44.9465302],[6.3647336,44.9441865],[6.3890986,44.9564347],[6.4287823,44.955119],[6.4847502,44.9356108],[6.5089359,44.9380889],[6.5289075,44.9070053],[6.6005584,44.863653],[6.630102,44.8286087],[6.6327178,44.8085291],[6.6715082,44.7958821],[6.6986193,44.8163256],[6.7420979,44.8206452],[6.7643874,44.8130916],[6.7871728,44.8211761],[6.8294099,44.8128182],[6.87698,44.8362286],[6.8635712,44.8504981],[6.749776,44.907334],[6.763419,44.971226],[6.7482652,45.0161652],[6.673405,45.0197642],[6.6594803,45.051491],[6.6632386,45.0721211],[6.6157221,45.1215527],[6.5769791,45.1231207],[6.5619637,45.1052725],[6.4909516,45.0978343],[6.487087,45.056404],[6.443464,45.0550815],[6.3649601,45.070009],[6.3758083,45.0832633],[6.3629274,45.1052008],[6.3352834,45.1224578]]]},"properties":{"loc_name":"CC Briançon","@id":"relation/2151604","boundary":"local_authority","local_authority:FR":"CC","name":"Communauté de communes du Briançonnais","ref:FR:SIREN":"240500439","source":"Arrêté préfectoral nº 2012-356-0014 portant modification du périmètre de la CC du Briançonnais - intégration de la commune de Puy-Saint-Pierre","source:website":"http://www.paca.territorial.gouv.fr/actes3/web/acte.php?aid=24053","type":"boundary","website":"https://www.ccbrianconnais.fr/","wikidata":"Q1118470","wikipedia":"fr:Communauté de communes du Briançonnais"},"id":"relation/2151604"},{"type":"Feature","geometry":{"type":"Polygon","coordinates":[[[1.8047924,50.3595178],[1.8321877,50.3447373],[1.8724972,50.334333],[1.8833554,50.317698],[1.9183939,50.3117885],[1.9395926,50.3308326],[1.9634747,50.317224],[1.9349971,50.3021679],[1.9456772,50.2879383],[1.98955,50.2757203],[2.0397521,50.277375],[2.0584755,50.2884309],[2.0517092,50.3138951],[2.0818627,50.3090282],[2.1102908,50.3222401],[2.1579796,50.284575],[2.1762219,50.3124182],[2.208213,50.3259077],[2.186824,50.340422],[2.184166,50.388403],[2.2102512,50.3971461],[2.1839546,50.4392378],[2.1671199,50.446633],[2.1387587,50.4780887],[2.1066038,50.4679228],[2.0981865,50.4511717],[2.0695893,50.4274441],[2.0417301,50.4284246],[2.010067,50.4477549],[1.9788487,50.439592],[1.9380198,50.4862275],[1.9021463,50.4856931],[1.874288,50.5115141],[1.8358827,50.4962296],[1.8227649,50.4766461],[1.7980629,50.4603582],[1.820272,50.4527594],[1.7959061,50.4285803],[1.7583119,50.4229218],[1.7530516,50.4029471],[1.7693712,50.3612307],[1.8047924,50.3595178]]]},"properties":{"loc_name":"CC 7 Vallées","@id":"relation/3391149","alt_name":"7 Vallées comm","boundary":"local_authority","local_authority:FR":"CC","name":"Communauté de communes des Sept Vallées","ref:FR:SIREN":"200044030","type":"boundary","website":"https://7vallees.fr/","wikidata":"Q16305359","wikipedia":"fr:Communauté de communes des 7 Vallées"},"id":"relation/3391149"},{"type":"Feature","geometry":{"type":"Polygon","coordinates":[[[4.635244,44.5296427],[4.636108,44.5260069],[4.6353857,44.5225965],[4.641134,44.514189],[4.6473194,44.5202775],[4.6559251,44.5188071],[4.6629743,44.516419],[4.6631599,44.5182185],[4.6709659,44.5221126],[4.6844791,44.5214578],[4.6873094,44.5202257],[4.6892507,44.5252688],[4.7027976,44.5247436],[4.7039787,44.5282124],[4.7069182,44.5307798],[4.705757,44.5338606],[4.7030549,44.5360644],[4.7009411,44.5394651],[4.6976353,44.5418677],[4.6930338,44.5431135],[4.6921364,44.5485639],[4.6925923,44.5581377],[4.6932444,44.5601998],[4.6963136,44.5629443],[4.6879454,44.5652441],[4.6864455,44.5668095],[4.6788456,44.5653441],[4.6628514,44.5682226],[4.6608091,44.5705535],[4.6631168,44.5745598],[4.661109,44.5785817],[4.661315,44.5799173],[4.6575161,44.5808959],[4.6529887,44.5762028],[4.6527434,44.5714894],[4.6502795,44.5687136],[4.6485628,44.561963],[4.6444301,44.5584967],[4.6388063,44.557911],[4.6367188,44.5533219],[4.6316436,44.5546021],[4.6279279,44.5510341],[4.6254162,44.5498751],[4.6253701,44.5458258],[4.62701,44.5405977],[4.6286681,44.5382675],[4.6325883,44.5359],[4.6324162,44.534503],[4.635244,44.5296427]]]},"properties":{"loc_name": "Commune du Teil", "@id":"relation/122620","admin_level":"8","alt_name":"Le Teil-d'Ardèche","boundary":"administrative","name":"Le Teil","name:oc":"Lo Telh","population":"8901","population:date":"2021","postal_code":"07400","ref:FR:SIREN":"210703195","ref:INSEE":"07319","source:name:oc":"ieo-bdtopoc","source:population":"INSEE 2024","type":"boundary","website":"https://www.mairie-le-teil.fr/","wikidata":"Q384423","wikipedia":"fr:Le Teil"},"id":"relation/122620"},{"type":"Feature","geometry":{"type":"Polygon","coordinates":[[[1.9465159,49.0062917],[1.9336172,49.0061303],[1.8758389,48.9922269],[1.877993,48.987517],[1.8767762,48.9817587],[1.8867086,48.9792067],[1.8895539,48.9757775],[1.8955458,48.9799132],[1.9063484,48.9789796],[1.9081501,48.9743516],[1.9158903,48.97032],[1.9240909,48.9708751],[1.9252356,48.9765267],[1.9321604,48.9760445],[1.9316231,48.9835469],[1.938884,48.9809914],[1.9465159,49.0062917]]]},"properties":{"loc_name": "Commune des Mureaux", "@id":"relation/444123","admin_level":"8","boundary":"administrative","name":"Les Mureaux","population":"33977","population:date":"2021","postal_code":"78130","ref:FR:SIREN":"217804400","ref:INSEE":"78440","source:population":"INSEE 2024","type":"boundary","wikidata":"Q317433","wikipedia":"fr:Les Mureaux"},"id":"relation/444123"},{"type":"Feature","geometry":{"type":"Polygon","coordinates":[[[3.203799,50.6239724],[3.2012201,50.6261831],[3.2023527,50.6277628],[3.2017101,50.6300568],[3.1992095,50.6270946],[3.1961955,50.6270396],[3.1931276,50.624023],[3.1915243,50.6230991],[3.1895705,50.6232725],[3.186477,50.6212155],[3.1804728,50.6181992],[3.1787986,50.6184727],[3.175677,50.6168563],[3.1766138,50.6137213],[3.1765937,50.6112653],[3.1755515,50.6110983],[3.1772422,50.6091382],[3.1832719,50.6098764],[3.1893913,50.6114773],[3.1938685,50.6117181],[3.195533,50.6115434],[3.1956625,50.6130263],[3.1951564,50.6156615],[3.1974077,50.6171081],[3.1967211,50.6237638],[3.1969711,50.62429],[3.203799,50.6239724]]]},"properties":{"loc_name": "Commune de Tressin", "@id":"relation/58206","admin_level":"8","boundary":"administrative","name":"Tressin","population":"1395","population:date":"2021","postal_code":"59152","ref:FR:SIREN":"215906025","ref:INSEE":"59602","source:population":"INSEE 2024","source:postal_code":"La Poste - 12/2014","type":"boundary","wikidata":"Q532311","wikipedia":"fr:Tressin"},"id":"relation/58206"},{"type":"Feature","geometry":{"type":"Polygon","coordinates":[[[3.2227382,43.8176134],[3.2485012,43.8294107],[3.234411,43.8576946],[3.2425811,43.8743904],[3.2754152,43.8982522],[3.3191324,43.8905597],[3.3415635,43.8950723],[3.3565213,43.9119913],[3.3505167,43.932316],[3.3771528,43.9675458],[3.4058971,43.9695133],[3.4176441,43.9926294],[3.4398592,43.998145],[3.4430918,44.024731],[3.3890573,44.0575158],[3.3526861,44.0496549],[3.3292074,44.0791102],[3.3071517,44.0687139],[3.273799,44.0879647],[3.2912596,44.1054837],[3.3237467,44.1122283],[3.3204659,44.135913],[3.3346061,44.1588224],[3.3750648,44.1790664],[3.3569127,44.2008441],[3.2940468,44.2071528],[3.2419079,44.1918283],[3.2227737,44.2304551],[3.1895524,44.2471853],[3.1611845,44.2448222],[3.1546256,44.2731141],[3.126006,44.2816418],[3.1543436,44.3085025],[3.133936,44.3300554],[3.1199121,44.3624123],[3.1213728,44.3888397],[3.1406418,44.3922577],[3.1298821,44.4211798],[3.1420273,44.4269705],[3.1336181,44.4591681],[3.1010954,44.4794647],[3.0904433,44.4612973],[3.054185,44.4697352],[2.9952468,44.4623129],[2.9830731,44.4285202],[2.9441744,44.4320876],[2.9688822,44.4015218],[2.9272891,44.3333164],[2.8851431,44.3417479],[2.8425406,44.3368074],[2.8292713,44.3221716],[2.8046042,44.3258447],[2.7820784,44.2867349],[2.8122858,44.2721538],[2.8248115,44.2410666],[2.8592338,44.2340509],[2.8633291,44.2126295],[2.8902379,44.1860754],[2.8497407,44.1055127],[2.8109844,44.1164079],[2.7908299,44.1024455],[2.770103,44.1233397],[2.7425057,44.1165174],[2.7031558,44.0841088],[2.6505532,44.0814595],[2.5848836,44.044395],[2.6142478,44.0372352],[2.60995,44.008747],[2.5738835,44.0016106],[2.5658483,43.9868301],[2.5361797,43.9814782],[2.4989793,43.9452267],[2.5339328,43.9361768],[2.5565978,43.918552],[2.5503639,43.8965763],[2.5792606,43.8802954],[2.5618932,43.8445829],[2.6577814,43.7572374],[2.7092182,43.7432801],[2.7367408,43.7297024],[2.7825011,43.737615],[2.7885935,43.7528728],[2.8143481,43.7620352],[2.8723575,43.739812],[2.9118424,43.7404781],[2.9379082,43.6907435],[2.9849972,43.7090315],[3.0215427,43.6945917],[3.0607126,43.692689],[3.0525927,43.745878],[3.0758346,43.7684799],[3.0483775,43.8015049],[3.0649588,43.8354428],[3.084532,43.8358487],[3.1223247,43.8194356],[3.2074508,43.8124138],[3.2227382,43.8176134]]]},"properties":{"loc_name":"PNR Grand Causses","@id":"relation/5555693","boundary":"protected_area","iucn_level":"5","name":"Parc naturel régional des Grands Causses","protect_class":"5","protection_title":"parc naturel régional","ref:FR:INPN":"FR8000014","short_name":"Parc des Grands Causses","type":"boundary","website":"https://www.parc-grands-causses.fr/","wikidata":"Q2685564","wikipedia":"fr:Parc naturel régional des Grands Causses"},"id":"relation/5555693"},{"type":"Feature","geometry":{"type":"Polygon","coordinates":[[[5.747304,45.511689],[5.752723,45.511298],[5.758201,45.502531],[5.75851,45.492031],[5.76985,45.493709],[5.786542,45.491784],[5.79397,45.487877],[5.79819,45.490854],[5.802847,45.504892],[5.807421,45.511741],[5.81852,45.521919],[5.825984,45.53182],[5.830938,45.548098],[5.823296,45.55698],[5.817467,45.580395],[5.819316,45.5843],[5.814873,45.609428],[5.814743,45.613144],[5.817728,45.618074],[5.81814,45.629679],[5.817259,45.645195],[5.821234,45.662362],[5.827809,45.669857],[5.832828,45.673873],[5.840585,45.682921],[5.847135,45.692938],[5.846918,45.704652],[5.844291,45.712839],[5.831192,45.729233],[5.823169,45.7325],[5.815011,45.742794],[5.811295,45.749123],[5.813095,45.755032],[5.818461,45.761733],[5.814038,45.764032],[5.798355,45.76222],[5.794385,45.768646],[5.795318,45.780414],[5.78138,45.780843],[5.780072,45.777416],[5.783072,45.772911],[5.781029,45.76496],[5.78384,45.751244],[5.781902,45.743103],[5.769838,45.741303],[5.776156,45.729223],[5.773296,45.723592],[5.764799,45.720295],[5.756681,45.708733],[5.748762,45.705296],[5.731325,45.710148],[5.727541,45.709226],[5.711568,45.709708],[5.704123,45.710923],[5.699722,45.708308],[5.701013,45.702101],[5.705729,45.696197],[5.709582,45.688831],[5.70833,45.683061],[5.698664,45.675202],[5.687061,45.668165],[5.683666,45.661964],[5.689182,45.648502],[5.684861,45.641487],[5.678124,45.638357],[5.659531,45.638685],[5.653598,45.63715],[5.649412,45.633717],[5.647793,45.625976],[5.636953,45.621749],[5.635807,45.614399],[5.631641,45.611235],[5.622165,45.611559],[5.623021,45.604283],[5.643094,45.585618],[5.647082,45.576743],[5.654826,45.570121],[5.669536,45.563199],[5.675166,45.552451],[5.680358,45.545047],[5.673341,45.543457],[5.671708,45.536571],[5.676849,45.530475],[5.690153,45.528051],[5.691247,45.521805],[5.701106,45.517546],[5.702673,45.511196],[5.71251,45.505294],[5.714919,45.498355],[5.715032,45.493377],[5.720095,45.483566],[5.729481,45.490485],[5.742172,45.502706],[5.747304,45.511689]]]},"properties":{"name":"Avant-Pays Savoyard","loc_name":"Avant Pays Savoyard","ID_GEOFLA":"29044","STATUT":"Commune simple","X_CHF_LIEU":"910488","Y_CHF_LIEU":"6500501","X_CENTROID":"910488","Y_CENTROID":"6500534","Z_MOYEN":"361","SUPERFICIE":"8784","CODE_DEPT":"73","NOM_DEPT":"SAVOIE","CODE_REG":"84","NOM_REGION":"AUVERGNE-RHONE-ALPES","insee_2018":"73039","code_com":"039","nom_com_20":"Belmont-Tramonet","CT":"14","AR":"2","Pop":"12423","dept":"73","siren":"247300528","raison_soc":"CC Val Guiers","nature_jur":"CCFPU","dep_com":"73","insee":"73039","siren_memb":"217300391","nom_membre":"Belmont-Tramonet"},"id":"EUaej"}]}